HXMT (HUIYAN)           
1 42758U 17034A   26061.99768198  .00006009  00000+0  30335-3 0  9994
2 42758  43.0149  53.8741 0032169 194.8346 165.1560 15.17356399481526
SAOCOM 1A               
1 43641U 18076A   26061.94195166  .00001034  00000+0  13642-3 0  9992
2 43641  97.8883 250.2097 0001291  83.7563 276.3797 14.82161354400362
H-2A R/B                
1 43682U 18084L   26061.59095046  .00022530  00000+0  54195-3 0  9995
2 43682  98.8738 277.4639 0025913  49.2078 311.1406 15.40984025404682
SAOCOM 1B               
1 46265U 20059A   26061.97317590  .00000506  00000+0  70045-4 0  9995
2 46265  97.8883 249.3384 0001475  79.5694 280.5686 14.82164659297759
CSS (TIANHE)            
1 48274U 21035A   26061.80363536  .00017409  00000+0  21017-3 0  9999
2 48274  41.4651 250.0496 0006616 230.1207 129.9050 15.60315912276530
COSMOS 2550             
1 48865U 21056A   26061.99657488 -.00000187  00000+0  13545-6 0  9996
2 48865  67.1423  61.1772 0008312 268.4981  91.5222 15.33832390262437
CZ-2C R/B               
1 52794U 22058K   26061.24589089  .00033239  00000+0  49712-3 0  9999
2 52794  50.1902 356.5623 0042153 169.0449 191.1449 15.53608022208971
CZ-2C R/B               
1 54039U 22132E   26061.96327804  .00045591  00000+0  53360-3 0  9998
2 54039  97.2954  65.0792 0020766 112.6179 247.7278 15.61162408189320
GSLV R/B                
1 54149U 22138AN  26061.83456019  .00004713  00000+0  40842-3 0  9995
2 54149  87.3885 168.6561 0021989 170.5085 189.6567 14.96713300182908
XRISM                   
1 57800U 23137A   26061.97065665  .00007377  00000+0  42017-3 0  9995
2 57800  31.0034 327.1198 0008207 330.7612  29.2567 15.11405488136775
ACS3                    
1 59588U 24077B   26061.80074937  .00019327  00000+0  15684-1 0  9994
2 59588  97.2116   4.4609 0054704  95.2616 265.4793 13.89238489 93244
SZ-21 MODULE            
1 66515U 25246C   26061.55898934  .00039531  00000+0  34908-3 0  9995
2 66515  41.4734 247.2373 0001469 286.7563  73.3117 15.67907744 16956
